FLOCK 4G-29             
1 62642U 25009AK  26068.81464037  .00011147  00000+0  41831-3 0  9994
2 62642  97.4058 151.3683 0001366 288.0502  72.0588 15.27382318 63721
STARLINK-32921          
1 62920U 25027P   26068.23068193  .00029188  00000+0  10649-2 0  9998
2 62920  42.9985 131.3284 0001420 183.4353 176.6489 15.27612444 61479
